{
  "type": "FeatureCollection",
  "features": [
    {
      "type": "Feature",
      "properties": {
        "norad_id": 41330,
        "name": "COSMOS 2514 (751)",
        "group": "glo-ops",
        "lat": -45.207341986738335,
        "lon": 167.03517342684302,
        "alt_km": 19105.55373586956,
        "timestamp": "2025-12-18T10:51:26.067143+00:00",
        "meta_object_name": "COSMOS 2514 (751)",
        "meta_object_id": "2016-008A",
        "meta_epoch": "2025-12-17T05:05:28.456224",
        "meta_mean_motion": 2.13102676,
        "meta_eccentricity": 0.00118978,
        "meta_inclination": 65.1312,
        "meta_ra_of_asc_node": 319.2508,
        "meta_arg_of_pericenter": 220.152,
        "meta_mean_anomaly": 139.7525,
        "meta_ephemeris_type": 0,
        "meta_classification_type": "U",
        "meta_norad_cat_id": 41330,
        "meta_element_set_no": 999,
        "meta_rev_at_epoch": 7674,
        "meta_bstar": 0,
        "meta_mean_motion_dot": -6.8e-07,
        "meta_mean_motion_ddot": 0,
        "tle_line1": "1 41330U 16008A   25351.21213491 -.00000068  00000+0  00000+0 0  9998",
        "tle_line2": "2 41330  65.1312 319.2508 0011897 220.1520 139.7525  2.13102676 76741"
      },
      "geometry": {
        "type": "Point",
        "coordinates": [
          167.03517342684302,
          -45.207341986738335
        ]
      }
    },
    {
      "type": "Feature",
      "properties": {
        "norad_id": 42939,
        "name": "COSMOS 2522 (752)",
        "group": "glo-ops",
        "lat": -4.0723870604251,
        "lon": -163.94661015754502,
        "alt_km": 19141.730220198267,
        "timestamp": "2025-12-18T10:51:26.067154+00:00",
        "meta_object_name": "COSMOS 2522 (752)",
        "meta_object_id": "2017-055A",
        "meta_epoch": "2025-12-16T02:41:16.915776",
        "meta_mean_motion": 2.13102063,
        "meta_eccentricity": 0.00063883,
        "meta_inclination": 64.0761,
        "meta_ra_of_asc_node": 198.1142,
        "meta_arg_of_pericenter": 224.0896,
        "meta_mean_anomaly": 135.9399,
        "meta_ephemeris_type": 0,
        "meta_classification_type": "U",
        "meta_norad_cat_id": 42939,
        "meta_element_set_no": 999,
        "meta_rev_at_epoch": 6407,
        "meta_bstar": 0,
        "meta_mean_motion_dot": 1.09e-06,
        "meta_mean_motion_ddot": 0,
        "tle_line1": "1 42939U 17055A   25350.11200134  .00000109  00000+0  00000+0 0  9990",
        "tle_line2": "2 42939  64.0761 198.1142 0006388 224.0896 135.9399  2.13102063 64079"
      },
      "geometry": {
        "type": "Point",
        "coordinates": [
          -163.94661015754502,
          -4.0723870604251
        ]
      }
    },
    {
      "type": "Feature",
      "properties": {
        "norad_id": 43508,
        "name": "COSMOS 2527 (756)",
        "group": "glo-ops",
        "lat": 23.062469112249435,
        "lon": 91.13769321105435,
        "alt_km": 19148.41354351304,
        "timestamp": "2025-12-18T10:51:26.067166+00:00",
        "meta_object_name": "COSMOS 2527 (756)",
        "meta_object_id": "2018-053A",
        "meta_epoch": "2025-12-16T01:44:48.838272",
        "meta_mean_motion": 2.13102153,
        "meta_eccentricity": 0.00087862,
        "meta_inclination": 65.4745,
        "meta_ra_of_asc_node": 80.02,
        "meta_arg_of_pericenter": 225.9447,
        "meta_mean_anomaly": 133.9962,
        "meta_ephemeris_type": 0,
        "meta_classification_type": "U",
        "meta_norad_cat_id": 43508,
        "meta_element_set_no": 999,
        "meta_rev_at_epoch": 5837,
        "meta_bstar": 0,
        "meta_mean_motion_dot": -5.4e-07,
        "meta_mean_motion_ddot": 0,
        "tle_line1": "1 43508U 18053A   25350.07278748 -.00000054  00000+0  00000+0 0  9993",
        "tle_line2": "2 43508  65.4745  80.0200 0008786 225.9447 133.9962  2.13102153 58379"
      },
      "geometry": {
        "type": "Point",
        "coordinates": [
          91.13769321105435,
          23.062469112249435
        ]
      }
    },
    {
      "type": "Feature",
      "properties": {
        "norad_id": 43687,
        "name": "COSMOS 2529 (757)",
        "group": "glo-ops",
        "lat": -42.992656662864405,
        "lon": 172.00298562466105,
        "alt_km": 19125.305665684173,
        "timestamp": "2025-12-18T10:51:26.067178+00:00",
        "meta_object_name": "COSMOS 2529 (757)",
        "meta_object_id": "2018-086A",
        "meta_epoch": "2025-12-17T02:36:34.858656",
        "meta_mean_motion": 2.13102066,
        "meta_eccentricity": 0.00070854,
        "meta_inclination": 64.292,
        "meta_ra_of_asc_node": 198.7408,
        "meta_arg_of_pericenter": 253.7168,
        "meta_mean_anomaly": 106.2877,
        "meta_ephemeris_type": 0,
        "meta_classification_type": "U",
        "meta_norad_cat_id": 43687,
        "meta_element_set_no": 999,
        "meta_rev_at_epoch": 5540,
        "meta_bstar": 0,
        "meta_mean_motion_dot": 1.11e-06,
        "meta_mean_motion_ddot": 0,
        "tle_line1": "1 43687U 18086A   25351.10873679  .00000111  00000+0  00000+0 0  9999",
        "tle_line2": "2 43687  64.2920 198.7408 0007085 253.7168 106.2877  2.13102066 55408"
      },
      "geometry": {
        "type": "Point",
        "coordinates": [
          172.00298562466105,
          -42.992656662864405
        ]
      }
    },
    {
      "type": "Feature",
      "properties": {
        "norad_id": 44299,
        "name": "COSMOS 2534 (758)",
        "group": "glo-ops",
        "lat": 63.93063412090181,
        "lon": -82.2495982698518,
        "alt_km": 19144.142934153388,
        "timestamp": "2025-12-18T10:51:26.067189+00:00",
        "meta_object_name": "COSMOS 2534 (758)",
        "meta_object_id": "2019-030A",
        "meta_epoch": "2025-12-17T20:57:14.230368",
        "meta_mean_motion": 2.13102433,
        "meta_eccentricity": 0.00087784,
        "meta_inclination": 64.3657,
        "meta_ra_of_asc_node": 198.72,
        "meta_arg_of_pericenter": 284.1982,
        "meta_mean_anomaly": 76.6096,
        "meta_ephemeris_type": 0,
        "meta_classification_type": "U",
        "meta_norad_cat_id": 44299,
        "meta_element_set_no": 999,
        "meta_rev_at_epoch": 5106,
        "meta_bstar": 0,
        "meta_mean_motion_dot": 1.11e-06,
        "meta_mean_motion_ddot": 0,
        "tle_line1": "1 44299U 19030A   25351.87308137  .00000111  00000+0  00000+0 0  9995",
        "tle_line2": "2 44299  64.3657 198.7200 0008778 284.1982  76.6096  2.13102433 51067"
      },
      "geometry": {
        "type": "Point",
        "coordinates": [
          -82.2495982698518,
          63.93063412090181
        ]
      }
    },
    {
      "type": "Feature",
      "properties": {
        "norad_id": 44850,
        "name": "COSMOS 2544 (759)",
        "group": "glo-ops",
        "lat": 57.48550133971443,
        "lon": 125.44809042674392,
        "alt_km": 19158.940296119024,
        "timestamp": "2025-12-18T10:51:26.067201+00:00",
        "meta_object_name": "COSMOS 2544 (759)",
        "meta_object_id": "2019-088A",
        "meta_epoch": "2025-12-16T11:40:43.010688",
        "meta_mean_motion": 2.13101965,
        "meta_eccentricity": 0.00138869,
        "meta_inclination": 65.4623,
        "meta_ra_of_asc_node": 79.8328,
        "meta_arg_of_pericenter": 249.7945,
        "meta_mean_anomaly": 110.0707,
        "meta_ephemeris_type": 0,
        "meta_classification_type": "U",
        "meta_norad_cat_id": 44850,
        "meta_element_set_no": 999,
        "meta_rev_at_epoch": 4682,
        "meta_bstar": 0,
        "meta_mean_motion_dot": -5.3e-07,
        "meta_mean_motion_ddot": 0,
        "tle_line1": "1 44850U 19088A   25350.48660892 -.00000053  00000+0  00000+0 0  9992",
        "tle_line2": "2 44850  65.4623  79.8328 0013886 249.7945 110.0707  2.13101965 46826"
      },
      "geometry": {
        "type": "Point",
        "coordinates": [
          125.44809042674392,
          57.48550133971443
        ]
      }
    },
    {
      "type": "Feature",
      "properties": {
        "norad_id": 45358,
        "name": "COSMOS 2545 (760)",
        "group": "glo-ops",
        "lat": -63.354477170318525,
        "lon": -113.4864115611354,
        "alt_km": 19110.25694695966,
        "timestamp": "2025-12-18T10:51:26.067212+00:00",
        "meta_object_name": "COSMOS 2545 (760)",
        "meta_object_id": "2020-018A",
        "meta_epoch": "2025-12-16T05:06:52.711776",
        "meta_mean_motion": 2.13102549,
        "meta_eccentricity": 0.00116565,
        "meta_inclination": 64.4672,
        "meta_ra_of_asc_node": 318.8472,
        "meta_arg_of_pericenter": 249.26,
        "meta_mean_anomaly": 110.6088,
        "meta_ephemeris_type": 0,
        "meta_classification_type": "U",
        "meta_norad_cat_id": 45358,
        "meta_element_set_no": 999,
        "meta_rev_at_epoch": 4476,
        "meta_bstar": 0,
        "meta_mean_motion_dot": -7e-07,
        "meta_mean_motion_ddot": 0,
        "tle_line1": "1 45358U 20018A   25350.21311009 -.00000070  00000+0  00000+0 0  9994",
        "tle_line2": "2 45358  64.4672 318.8472 0011656 249.2600 110.6088  2.13102549 44763"
      },
      "geometry": {
        "type": "Point",
        "coordinates": [
          -113.4864115611354,
          -63.354477170318525
        ]
      }
    }
  ]
}